start=new Date('2022-01-22T00:00:00.000Z').valueOf();
sats=[{"PERIAPSIS":"546.137","RCS_SIZE":"LARGE","ELEMENT_SET_NO":"999","PERIOD":"95.593","APOAPSIS":"548.348","REF_FRAME":"TEME","TLE_LINE2":"2 45685  53.0557 347.5533 0001596  57.8600 302.2544 15.06390584 91542","MEAN_MOTION":"15.06390584","BSTAR":"-0.00013703000000","GP_ID":"194326028","CLASSIFICATION_TYPE":"U","EPHEMERIS_TYPE":"0","REV_AT_EPOCH":"9154","MEAN_ELEMENT_THEORY":"SGP4","COUNTRY_CODE":"US","NORAD_CAT_ID":"45685","ARG_OF_PERICENTER":"57.8600","MEAN_ANOMALY":"302.2544","SITE":"AFETR","OBJECT_ID":"2020-035AE","SEMIMAJOR_AXIS":"6925.377","EPOCH":"2022-01-21T09:53:29.310720","OBJECT_NAME":"STARLINK-1402","MEAN_MOTION_DOT":"-0.00002321","TIME_SYSTEM":"UTC","OBJECT_TYPE":"PAYLOAD","CENTER_NAME":"EARTH","FILE":"3279324","LAUNCH_DATE":"2020-06-04","DECAY_DATE":null,"INCLINATION":"53.0557","MEAN_MOTION_DDOT":"0.0000000000000","ECCENTRICITY":"0.00015960","TLE_LINE1":"1 45685U 20035AE  22021.41214480 -.00002321  00000-0 -13703-3 0  9996","RA_OF_ASC_NODE":"347.5533"},{"ECCENTRICITY":"0.00017240","MEAN_MOTION_DDOT":"0.0000000000000","TLE_LINE1":"1 45686U 20035AF  22021.27209323 -.00000135  00000-0  98328-5 0  9999","RA_OF_ASC_NODE":"348.1699","TIME_SYSTEM":"UTC","LAUNCH_DATE":"2020-06-04","FILE":"3279324","CENTER_NAME":"EARTH","OBJECT_TYPE":"PAYLOAD","INCLINATION":"53.0559","DECAY_DATE":null,"EPOCH":"2022-01-21T06:31:48.855072","OBJECT_NAME":"STARLINK-1404","MEAN_MOTION_DOT":"-0.00000135","OBJECT_ID":"2020-035AF","SEMIMAJOR_AXIS":"6925.398","REV_AT_EPOCH":"9152","COUNTRY_CODE":"US","ARG_OF_PERICENTER":"67.8900","MEAN_ELEMENT_THEORY":"SGP4","NORAD_CAT_ID":"45686","SITE":"AFETR","MEAN_ANOMALY":"292.2272","EPHEMERIS_TYPE":"0","CLASSIFICATION_TYPE":"U","GP_ID":"194326773","RCS_SIZE":"LARGE","PERIAPSIS":"546.069","PERIOD":"95.593","ELEMENT_SET_NO":"999","TLE_LINE2":"2 45686  53.0559 348.1699 0001724  67.8900 292.2272 15.06383776 91521","APOAPSIS":"548.457","REF_FRAME":"TEME","BSTAR":"0.00000983280000","MEAN_MOTION":"15.06383776"},{"SEMIMAJOR_AXIS":"6752.983","OBJECT_ID":"2020-035AG","REV_AT_EPOCH":"9143","SITE":"AFETR","MEAN_ANOMALY":"285.3354","MEAN_ELEMENT_THEORY":"SGP4","COUNTRY_CODE":"US","NORAD_CAT_ID":"45687","ARG_OF_PERICENTER":"74.7791","EPHEMERIS_TYPE":"0","CLASSIFICATION_TYPE":"U","GP_ID":"194335383","PERIOD":"92.046","ELEMENT_SET_NO":"999","RCS_SIZE":"LARGE","PERIAPSIS":"374.042","BSTAR":"0.00409910000000","MEAN_MOTION":"15.64441440","TLE_LINE2":"2 45687  53.0165 324.8150 0001193  74.7791 285.3354 15.64441440 91434","APOAPSIS":"375.653","REF_FRAME":"TEME","TLE_LINE1":"1 45687U 20035AG  22021.56667426  .00422042  00000-0  40991-2 0  9998","RA_OF_ASC_NODE":"324.8150","ECCENTRICITY":"0.00011930","MEAN_MOTION_DDOT":"0.0000000000000","LAUNCH_DATE":"2020-06-04","FILE":"3279452","OBJECT_TYPE":"PAYLOAD","CENTER_NAME":"EARTH","TIME_SYSTEM":"UTC","INCLINATION":"53.0165","DECAY_DATE":null,"EPOCH":"2022-01-21T13:36:00.656064","OBJECT_NAME":"STARLINK-1406","MEAN_MOTION_DOT":"0.00422042"},{"MEAN_MOTION_DDOT":"0.0000000000000","ECCENTRICITY":"0.00016630","TLE_LINE1":"1 45688U 20035AH  22021.33104876 -.00001735  00000-0 -97616-4 0  9991","RA_OF_ASC_NODE":"347.8963","INCLINATION":"53.0545","DECAY_DATE":null,"TIME_SYSTEM":"UTC","OBJECT_TYPE":"PAYLOAD","CENTER_NAME":"EARTH","FILE":"3279324","LAUNCH_DATE":"2020-06-04","MEAN_MOTION_DOT":"-0.00001735","EPOCH":"2022-01-21T07:56:42.612864","OBJECT_NAME":"STARLINK-1408","SEMIMAJOR_AXIS":"6925.389","OBJECT_ID":"2020-035AH","MEAN_ELEMENT_THEORY":"SGP4","COUNTRY_CODE":"US","ARG_OF_PERICENTER":"53.8858","NORAD_CAT_ID":"45688","SITE":"AFETR","MEAN_ANOMALY":"306.2285","REV_AT_EPOCH":"9152","CLASSIFICATION_TYPE":"U","GP_ID":"194327278","EPHEMERIS_TYPE":"0","APOAPSIS":"548.405","REF_FRAME":"TEME","TLE_LINE2":"2 45688  53.0545 347.8963 0001663  53.8858 306.2285 15.06386924 91525","MEAN_MOTION":"15.06386924","BSTAR":"-0.00009761600000","RCS_SIZE":"LARGE","PERIAPSIS":"546.102","ELEMENT_SET_NO":"999","PERIOD":"95.593"},{"CLASSIFICATION_TYPE":"U","GP_ID":"194298178","EPHEMERIS_TYPE":"0","MEAN_MOTION":"15.06391302","BSTAR":"-0.00009076900000","APOAPSIS":"548.476","REF_FRAME":"TEME","TLE_LINE2":"2 45689  53.0563 348.3783 0001784  65.7126 294.4049 15.06391302 91102","ELEMENT_SET_NO":"999","PERIOD":"95.593","RCS_SIZE":"LARGE","PERIAPSIS":"546.005","SEMIMAJOR_AXIS":"6925.375","OBJECT_ID":"2020-035AJ","MEAN_ANOMALY":"294.4049","SITE":"AFETR","COUNTRY_CODE":"US","MEAN_ELEMENT_THEORY":"SGP4","ARG_OF_PERICENTER":"65.7126","NORAD_CAT_ID":"45689","REV_AT_EPOCH":"9110","MEAN_MOTION_DOT":"-0.00001633","EPOCH":"2022-01-21T05:22:47.208864","OBJECT_NAME":"STARLINK-1413","TLE_LINE1":"1 45689U 20035AJ  22021.22415751 -.00001633  00000-0 -90769-4 0  9996","RA_OF_ASC_NODE":"348.3783","MEAN_MOTION_DDOT":"0.0000000000000","ECCENTRICITY":"0.00017840","INCLINATION":"53.0563","DECAY_DATE":null,"CENTER_NAME":"EARTH","OBJECT_TYPE":"PAYLOAD","LAUNCH_DATE":"2020-06-04","FILE":"3278927","TIME_SYSTEM":"UTC"},{"RA_OF_ASC_NODE":"346.7621","TLE_LINE1":"1 45690U 20035AK  22021.58861404 -.00002544  00000-0 -15552-3 0  9995","MEAN_MOTION_DDOT":"0.0000000000000","ECCENTRICITY":"0.00014710","INCLINATION":"53.0011","DECAY_DATE":null,"CENTER_NAME":"EARTH","OBJECT_TYPE":"PAYLOAD","LAUNCH_DATE":"2020-06-04","FILE":"3279324","TIME_SYSTEM":"UTC","MEAN_MOTION_DOT":"-0.00002544","OBJECT_NAME":"STARLINK-1414","EPOCH":"2022-01-21T14:07:36.253056","OBJECT_ID":"2020-035AK","SEMIMAJOR_AXIS":"6927.886","SITE":"AFETR","MEAN_ANOMALY":"289.9616","COUNTRY_CODE":"US","MEAN_ELEMENT_THEORY":"SGP4","ARG_OF_PERICENTER":"70.1530","NORAD_CAT_ID":"45690","REV_AT_EPOCH":"9153","CLASSIFICATION_TYPE":"U","GP_ID":"194326274","EPHEMERIS_TYPE":"0","MEAN_MOTION":"15.05572471","BSTAR":"-0.00015552000000","APOAPSIS":"550.770","REF_FRAME":"TEME","TLE_LINE2":"2 45690  53.0011 346.7621 0001471  70.1530 289.9616 15.05572471 91530","ELEMENT_SET_NO":"999","PERIOD":"95.645","PERIAPSIS":"548.732","RCS_SIZE":"LARGE"},{"REV_AT_EPOCH":"9156","MEAN_ELEMENT_THEORY":"SGP4","COUNTRY_CODE":"US","NORAD_CAT_ID":"45691","ARG_OF_PERICENTER":"66.3396","SITE":"AFETR","MEAN_ANOMALY":"293.7765","SEMIMAJOR_AXIS":"6925.352","OBJECT_ID":"2020-035AL","RCS_SIZE":"LARGE","PERIAPSIS":"546.084","ELEMENT_SET_NO":"999","PERIOD":"95.592","REF_FRAME":"TEME","APOAPSIS":"548.351","TLE_LINE2":"2 45691  53.0535 346.6773 0001637  66.3396 293.7765 15.06398800 91564","MEAN_MOTION":"15.06398800","BSTAR":"-0.00001479100000","CLASSIFICATION_TYPE":"U","GP_ID":"194336459","EPHEMERIS_TYPE":"0","TIME_SYSTEM":"UTC","CENTER_NAME":"EARTH","OBJECT_TYPE":"PAYLOAD","LAUNCH_DATE":"2020-06-04","FILE":"3279509","DECAY_DATE":null,"INCLINATION":"53.0535","MEAN_MOTION_DDOT":"0.0000000000000","ECCENTRICITY":"0.00016370","TLE_LINE1":"1 45691U 20035AL  22021.60749508 -.00000502  00000-0 -14791-4 0  9996","RA_OF_ASC_NODE":"346.6773","OBJECT_NAME":"STARLINK-1415","EPOCH":"2022-01-21T14:34:47.574912","MEAN_MOTION_DOT":"-0.00000502"},{"CLASSIFICATION_TYPE":"U","GP_ID":"194327778","EPHEMERIS_TYPE":"0","ELEMENT_SET_NO":"999","PERIOD":"95.593","RCS_SIZE":"LARGE","PERIAPSIS":"545.675","MEAN_MOTION":"15.06392818","BSTAR":"-0.00002795700000","REF_FRAME":"TEME","APOAPSIS":"548.796","TLE_LINE2":"2 45692  53.0556 347.6019 0002253  60.4642 299.6571 15.06392818 91536","OBJECT_ID":"2020-035AM","SEMIMAJOR_AXIS":"6925.371","REV_AT_EPOCH":"9153","SITE":"AFETR","MEAN_ANOMALY":"299.6571","MEAN_ELEMENT_THEORY":"SGP4","COUNTRY_CODE":"US","NORAD_CAT_ID":"45692","ARG_OF_PERICENTER":"60.4642","OBJECT_NAME":"STARLINK-1416","EPOCH":"2022-01-21T09:37:33.942720","MEAN_MOTION_DOT":"-0.00000698","RA_OF_ASC_NODE":"347.6019","TLE_LINE1":"1 45692U 20035AM  22021.40108730 -.00000698  00000-0 -27957-4 0  9995","MEAN_MOTION_DDOT":"0.0000000000000","ECCENTRICITY":"0.00022530","CENTER_NAME":"EARTH","OBJECT_TYPE":"PAYLOAD","FILE":"3279324","LAUNCH_DATE":"2020-06-04","TIME_SYSTEM":"UTC","INCLINATION":"53.0556","DECAY_DATE":null},{"MEAN_MOTION_DOT":"0.00001616","EPOCH":"2022-01-21T10:04:06.540096","OBJECT_NAME":"STARLINK-1417","INCLINATION":"53.0548","DECAY_DATE":null,"TIME_SYSTEM":"UTC","OBJECT_TYPE":"PAYLOAD","CENTER_NAME":"EARTH","LAUNCH_DATE":"2020-06-04","FILE":"3279324","MEAN_MOTION_DDOT":"0.0000000000000","ECCENTRICITY":"0.00015440","TLE_LINE1":"1 45693U 20035AN  22021.41952014  .00001616  00000-0  12736-3 0  9996","RA_OF_ASC_NODE":"347.5125","REF_FRAME":"TEME","APOAPSIS":"548.257","TLE_LINE2":"2 45693  53.0548 347.5125 0001544  63.5068 296.6079 15.06408437 91538","MEAN_MOTION":"15.06408437","BSTAR":"0.00012736000000","PERIAPSIS":"546.118","RCS_SIZE":"LARGE","ELEMENT_SET_NO":"999","PERIOD":"95.592","CLASSIFICATION_TYPE":"U","GP_ID":"194326029","EPHEMERIS_TYPE":"0","MEAN_ELEMENT_THEORY":"SGP4","COUNTRY_CODE":"US","ARG_OF_PERICENTER":"63.5068","NORAD_CAT_ID":"45693","MEAN_ANOMALY":"296.6079","SITE":"AFETR","REV_AT_EPOCH":"9153","SEMIMAJOR_AXIS":"6925.323","OBJECT_ID":"2020-035AN"},{"OBJECT_NAME":"STARLINK-1419","EPOCH":"2022-01-21T10:14:42.796608","MEAN_MOTION_DOT":"-0.00001705","LAUNCH_DATE":"2020-06-04","FILE":"3279324","OBJECT_TYPE":"PAYLOAD","CENTER_NAME":"EARTH","TIME_SYSTEM":"UTC","INCLINATION":"53.0543","DECAY_DATE":null,"TLE_LINE1":"1 45694U 20035AP  22021.42688422 -.00001705  00000-0 -95604-4 0  9994","RA_OF_ASC_NODE":"347.4689","ECCENTRICITY":"0.00015610","MEAN_MOTION_DDOT":"0.0000000000000","PERIOD":"95.593","ELEMENT_SET_NO":"999","PERIAPSIS":"546.159","RCS_SIZE":"LARGE","BSTAR":"-0.00009560400000","MEAN_MOTION":"15.06391386","TLE_LINE2":"2 45694  53.0543 347.4689 0001561  55.0551 305.0584 15.06391386 91530","REF_FRAME":"TEME","APOAPSIS":"548.321","EPHEMERIS_TYPE":"0","CLASSIFICATION_TYPE":"U","GP_ID":"194326774","REV_AT_EPOCH":"9153","SITE":"AFETR","MEAN_ANOMALY":"305.0584","MEAN_ELEMENT_THEORY":"SGP4","COUNTRY_CODE":"US","ARG_OF_PERICENTER":"55.0551","NORAD_CAT_ID":"45694","SEMIMAJOR_AXIS":"6925.375","OBJECT_ID":"2020-035AP"}];
